NORAD_CAT_ID,OBJECT_NAME,OBJECT_TYPE,EPOCH,MEAN_MOTION,ECCENTRICITY,INCLINATION,RA_OF_ASC_NODE,ARG_OF_PERICENTER,MEAN_ANOMALY,BSTAR,MEAN_MOTION_DOT,MEAN_MOTION_DDOT,TLE_LINE0,TLE_LINE1,TLE_LINE2,SEMIMAJOR_AXIS,PERIOD,APOGEE,PERIGEE,DECAYED
53900.0,STARLINK-5045,PAYLOAD,2023-09-04 00:37:32,15.0884068,0.0001585,53.2174,123.3117,93.645,266.4723,0.00015603,2.196e-05,0.0,0 STARLINK-5045,1 53900U 22119Q   23247.02606765  .00002196  00000-0  15603-3 0  9998,2 53900  53.2174 123.3117 0001585  93.6450 266.4723 15.08840680 52732,6917.878,95.438,540.84,538.647,0.0
53900.0,STARLINK-5045,PAYLOAD,2023-09-04 08:34:28,15.0883561,0.0001507,53.2172,121.8247,93.0084,267.108,0.00010349,1.359e-05,0.0,0 STARLINK-5045,1 53900U 22119Q   23247.35727357  .00001359  00000-0  10349-3 0  9997,2 53900  53.2172 121.8247 0001507  93.0084 267.1080 15.08835610 52784,6917.894,95.438,540.801,538.716,0.0
53900.0,STARLINK-5045,PAYLOAD,2023-09-05 02:03:43,15.0883591,0.0001251,53.2175,118.5542,87.7866,272.3269,7.0503e-05,8.34e-06,0.0,0 STARLINK-5045,1 53900U 22119Q   23248.08591665  .00000834  00000-0  70503-4 0  9995,2 53900  53.2175 118.5542 0001251  87.7866 272.3269 15.08835910 53312,6917.893,95.438,540.623,538.892,0.0
53900.0,STARLINK-5045,PAYLOAD,2023-09-06 00:19:06,15.08841525,0.0001447,53.218,114.3916,106.1246,253.9905,0.00011023,1.467e-05,0.0,0 STARLINK-5045,1 53900U 22119Q   23249.01327282  .00001467  00000-0  11023-3 0  9995,2 53900  53.2180 114.3916 0001447 106.1246 253.9905 15.08841525 53032,6917.876,95.437,540.742,538.74,0.0
53900.0,STARLINK-5045,PAYLOAD,2023-09-06 20:59:07,15.08844737,0.0001428,53.2189,110.5245,90.0953,270.0203,0.00013488,1.86e-05,0.0,0 STARLINK-5045,1 53900U 22119Q   23249.87439039  .00001860  00000-0  13488-3 0  9997,2 53900  53.2189 110.5245 0001428  90.0953 270.0203 15.08844737 53588,6917.866,95.437,540.719,538.743,0.0
53900.0,STARLINK-5045,PAYLOAD,2023-09-07 00:09:53,15.08847843,0.0001366,53.2187,109.9296,89.3583,270.7565,0.00011175,1.491e-05,0.0,0 STARLINK-5045,1 53900U 22119Q   23250.00686853  .00001491  00000-0  11175-3 0  9993,2 53900  53.2187 109.9296 0001366  89.3583 270.7565 15.08847843 53607,6917.856,95.437,540.666,538.776,0.0
53900.0,STARLINK-5045,PAYLOAD,2023-09-07 14:28:22,15.08841506,0.0001739,53.2124,107.2548,93.3603,266.7588,3.8172e-05,3.19e-06,0.0,0 STARLINK-5045,1 53900U 22119Q   23250.60303408  .00000319  00000-0  38172-4 0  9996,2 53900  53.2124 107.2548 0001739  93.3603 266.7588 15.08841506 53690,6917.876,95.437,540.944,538.538,0.0
53900.0,STARLINK-5045,PAYLOAD,2023-09-08 00:00:41,15.08839443,0.0001646,53.2155,105.4697,90.6287,269.4894,-1.0616e-05,-4.57e-06,0.0,0 STARLINK-5045,1 53900U 22119Q   23251.00047726 -.00000457  00000-0 -10616-4 0  9997,2 53900  53.2155 105.4697 0001646  90.6287 269.4894 15.08839443 53758,6917.882,95.438,540.886,538.608,0.0
53900.0,STARLINK-5045,PAYLOAD,2023-09-08 17:29:55,15.08815029,0.000173,53.217,102.1979,86.7406,273.3784,0.00044205,6.749e-05,0.0,0 STARLINK-5045,1 53900U 22119Q   23251.72911415  .00006749  00000-0  44205-3 0  9999,2 53900  53.2170 102.1979 0001730  86.7406 273.3784 15.08815029 53447,6917.957,95.439,541.019,538.625,0.0
53900.0,STARLINK-5045,PAYLOAD,2023-09-08 20:40:41,15.08852418,0.0001242,53.2181,101.6034,86.8446,273.2688,-2.8057e-05,-7.35e-06,0.0,0 STARLINK-5045,1 53900U 22119Q   23251.86158885 -.00000735  00000-0 -28057-4 0  9997,2 53900  53.2181 101.6034 0001242  86.8446 273.2688 15.08852418 53881,6917.842,95.437,540.567,538.848,0.0
53900.0,STARLINK-5045,PAYLOAD,2023-09-08 23:51:27,15.08847429,0.00014,53.218,101.008,93.0818,267.0334,6.0876e-05,6.81e-06,0.0,0 STARLINK-5045,1 53900U 22119Q   23251.99406901  .00000681  00000-0  60876-4 0  9999,2 53900  53.2180 101.0080 0001400  93.0818 267.0334 15.08847429 53485,6917.858,95.437,540.691,538.754,0.0
53900.0,STARLINK-5045,PAYLOAD,2023-09-09 18:56:05,15.08842142,0.0001308,53.218,97.4388,91.2649,268.8493,8.6027e-05,1.082e-05,0.0,0 STARLINK-5045,1 53900U 22119Q   23252.78895217  .00001082  00000-0  86027-4 0  9991,2 53900  53.2180  97.4388 0001308  91.2649 268.8493 15.08842142 53609,6917.874,95.437,540.644,538.834,0.0
53900.0,STARLINK-5045,PAYLOAD,2023-09-09 23:42:14,15.08844101,0.0001292,53.218,96.5473,89.7844,270.3296,0.00010051,1.312e-05,0.0,0 STARLINK-5045,1 53900U 22119Q   23252.98767056  .00001312  00000-0  10051-3 0  9991,2 53900  53.2180  96.5473 0001292  89.7844 270.3296 15.08844101 54051,6917.868,95.437,540.627,538.839,0.0
53900.0,STARLINK-5045,PAYLOAD,2023-09-10 18:46:52,15.08838273,0.0001258,53.2178,92.9785,88.8825,271.2311,1.378e-05,-6.9e-07,0.0,0 STARLINK-5045,1 53900U 22119Q   23253.78255706 -.00000069  00000-0  13780-4 0  9996,2 53900  53.2178  92.9785 0001258  88.8825 271.2311 15.08838273 53752,6917.886,95.438,540.621,538.88,0.0
53900.0,STARLINK-5045,PAYLOAD,2023-09-11 05:54:34,15.08840251,0.0001226,53.2177,90.8975,86.8095,273.3037,3.3711e-05,2.49e-06,0.0,0 STARLINK-5045,1 53900U 22119Q   23254.24623538  .00000249  00000-0  33711-4 0  9995,2 53900  53.2177  90.8975 0001226  86.8095 273.3037 15.08840251 54243,6917.88,95.438,540.593,538.896,0.0
53900.0,STARLINK-5045,PAYLOAD,2023-09-11 23:23:49,15.08842187,0.0001282,53.2188,87.628,90.7819,269.332,3.823e-05,3.21e-06,0.0,0 STARLINK-5045,1 53900U 22119Q   23254.97487563  .00000321  00000-0  38230-4 0  9993,2 53900  53.2188  87.6280 0001282  90.7819 269.3320 15.08842187 53933,6917.874,95.437,540.626,538.852,0.0
53900.0,STARLINK-5045,PAYLOAD,2023-09-12 05:45:22,15.08837172,0.000112,53.2176,86.4384,88.0052,272.1069,2.1869e-05,6e-07,0.0,0 STARLINK-5045,1 53900U 22119Q   23255.23984018  .00000060  00000-0  21869-4 0  9990,2 53900  53.2176  86.4384 0001120  88.0052 272.1069 15.08837172 53976,6917.889,95.438,540.529,538.979,0.0
53900.0,STARLINK-5045,PAYLOAD,2023-09-12 16:53:04,15.0882897,0.0001174,53.2179,84.3573,97.9347,262.1779,7.6148e-05,9.24e-06,0.0,0 STARLINK-5045,1 53900U 22119Q   23255.70352645  .00000924  00000-0  76148-4 0  9996,2 53900  53.2179  84.3573 0001174  97.9347 262.1779 15.08828970 54043,6917.914,95.438,540.591,538.967,0.0
53900.0,STARLINK-5045,PAYLOAD,2023-09-12 20:03:50,15.08839673,0.0001384,53.2182,83.7618,86.5732,273.5418,6.9142e-05,8.13e-06,0.0,0 STARLINK-5045,1 53900U 22119Q   23255.83600166  .00000813  00000-0  69142-4 0  9997,2 53900  53.2182  83.7618 0001384  86.5732 273.5418 15.08839673 54481,6917.881,95.438,540.704,538.789,0.0
53900.0,STARLINK-5045,PAYLOAD,2023-09-13 11:57:41,15.08846078,0.0001426,53.2184,80.7878,82.8475,277.2679,0.00014276,1.985e-05,0.0,0 STARLINK-5045,1 53900U 22119Q   23256.49839613  .00001985  00000-0  14276-3 0  9999,2 53900  53.2184  80.7878 0001426  82.8475 277.2679 15.08846078 54586,6917.862,95.437,540.713,538.74,0.0
53900.0,STARLINK-5045,PAYLOAD,2023-09-13 18:19:13,15.088516,0.0001419,53.219,79.5988,100.4406,259.6746,0.00018142,2.601e-05,0.0,0 STARLINK-5045,1 53900U 22119Q   23256.76335176  .00002601  00000-0  18142-3 0  9996,2 53900  53.2190  79.5988 0001419 100.4406 259.6746 15.08851600 54209,6917.845,95.437,540.692,538.728,0.0
53900.0,STARLINK-5045,PAYLOAD,2023-09-13 19:54:36,15.08851636,0.0001437,53.2181,79.3014,93.2352,266.8805,0.0002561,3.791e-05,0.0,0 STARLINK-5045,1 53900U 22119Q   23256.82959372  .00003791  00000-0  25610-3 0  9992,2 53900  53.2181  79.3014 0001437  93.2352 266.8805 15.08851636 54638,6917.845,95.437,540.704,538.716,0.0
53900.0,STARLINK-5045,PAYLOAD,2023-09-14 11:48:29,15.08837103,0.0001373,53.2173,76.3282,86.9628,273.1521,7.7355e-05,9.43e-06,0.0,0 STARLINK-5045,1 53900U 22119Q   23257.49200273  .00000943  00000-0  77355-4 0  9995,2 53900  53.2173  76.3282 0001373  86.9628 273.1521 15.08837103 54737,6917.889,95.438,540.704,538.804,0.0
53900.0,STARLINK-5045,PAYLOAD,2023-09-14 18:10:01,15.08837683,0.000122,53.2176,75.1387,88.1336,271.9795,9.2238e-06,-1.41e-06,0.0,0 STARLINK-5045,1 53900U 22119Q   23257.75696328 -.00000141  00000-0  92238-5 0  9993,2 53900  53.2176  75.1387 0001220  88.1336 271.9795 15.08837683 54354,6917.887,95.438,540.596,538.908,0.0
53900.0,STARLINK-5045,PAYLOAD,2023-09-15 11:39:16,15.08840951,0.0001308,53.2186,71.8679,91.1427,268.9715,4.0684e-05,3.6e-06,0.0,0 STARLINK-5045,1 53900U 22119Q   23258.48560308  .00000360  00000-0  40684-4 0  9991,2 53900  53.2186  71.8679 0001308  91.1427 268.9715 15.08840951 54882,6917.877,95.437,540.647,538.838,0.0
53900.0,STARLINK-5045,PAYLOAD,2023-09-15 21:11:34,15.08848618,0.0001313,53.2186,70.0839,100.0975,260.0165,0.00017983,2.576e-05,0.0,0 STARLINK-5045,1 53900U 22119Q   23258.88303923  .00002576  00000-0  17983-3 0  9999,2 53900  53.2186  70.0839 0001313 100.0975 260.0165 15.08848618 54526,6917.854,95.437,540.627,538.811,0.0
53900.0,STARLINK-5045,PAYLOAD,2023-09-16 05:08:30,15.08839153,0.0001514,53.217,68.5922,102.4213,257.6948,0.00017841,2.552e-05,0.0,0 STARLINK-5045,1 53900U 22119Q   23259.21424567  .00002552  00000-0  17841-3 0  9992,2 53900  53.2170  68.5922 0001514 102.4213 257.6948 15.08839153 54578,6917.883,95.438,540.795,538.701,0.0
53900.0,STARLINK-5045,PAYLOAD,2023-09-16 11:30:03,15.08836385,0.000129,53.2181,67.4075,86.9753,273.1387,0.00015896,2.243e-05,0.0,0 STARLINK-5045,1 53900U 22119Q   23259.47920721  .00002243  00000-0  15896-3 0  9998,2 53900  53.2181  67.4075 0001290  86.9753 273.1387 15.08836385 55039,6917.891,95.438,540.649,538.864,0.0
53900.0,STARLINK-5045,PAYLOAD,2023-09-17 11:20:50,15.08845874,0.000124,53.218,62.9471,83.052,277.0613,0.00020464,2.971e-05,0.0,0 STARLINK-5045,1 53900U 22119Q   23260.47280558  .00002971  00000-0  20464-3 0  9992,2 53900  53.2180  62.9471 0001240  83.0520 277.0613 15.08845874 55187,6917.862,95.437,540.585,538.87,0.0
53900.0,STARLINK-5045,PAYLOAD,2023-09-17 17:42:22,15.08849574,0.0001247,53.2179,61.7573,83.5964,276.517,0.00026412,3.919e-05,0.0,0 STARLINK-5045,1 53900U 22119Q   23260.73776358  .00003919  00000-0  26412-3 0  9991,2 53900  53.2179  61.7573 0001247  83.5964 276.5170 15.08849574 54800,6917.851,95.437,540.579,538.853,0.0
